{"type": "FeatureCollection", "features": [ {"type": "Feature", "properties": {"norad_id": 32155, "name": "FENGYUN 1C DEB", "group": "fengyun-1c-debris", "lat": -44.69057711878442, "lon": 84.44768303555627, "alt_km": 742.963363110388, "timestamp": "2025-12-09T21:34:11.693800+00:00", "meta": {"OBJECT_NAME": "FENGYUN 1C DEB", "OBJECT_ID": "1999-025CSZ", "EPOCH": "2025-12-04T13:09:10.027872", "MEAN_MOTION": 14.32912866, "ECCENTRICITY": 0.0069286, "INCLINATION": 98.9526, "RA_OF_ASC_NODE": 267.8922, "ARG_OF_PERICENTER": 264.2615, "MEAN_ANOMALY": 95.0665, "EPHEMERIS_TYPE": 0, "CLASSIFICATION_TYPE": "U", "NORAD_CAT_ID": 32155, "ELEMENT_SET_NO": 999, "REV_AT_EPOCH": 70105, "BSTAR": 0.001161, "MEAN_MOTION_DOT": 3.211e-05, "MEAN_MOTION_DDOT": 0}, "tle": {"line1": "1 32155U 99025CSZ 25338.54803273  .00003211  00000+0  11610-2 0  9991", "line2": "2 32155  98.9526 267.8922 0069286 264.2615  95.0665 14.32912866701056"}}, "geometry": {"type": "Point", "coordinates": [84.44768303555627, -44.69057711878442]}}, {"type": "Feature", "properties": {"norad_id": 32156, "name": "FENGYUN 1C DEB", "group": "fengyun-1c-debris", "lat": -61.809372710354864, "lon": -44.660841288498695, "alt_km": 851.2703294687417, "timestamp": "2025-12-09T21:34:11.693810+00:00", "meta": {"OBJECT_NAME": "FENGYUN 1C DEB", "OBJECT_ID": "1999-025CTA", "EPOCH": "2025-12-08T07:32:53.302848", "MEAN_MOTION": 14.31940306, "ECCENTRICITY": 0.00822984, "INCLINATION": 99.3543, "RA_OF_ASC_NODE": 151.5435, "ARG_OF_PERICENTER": 70.1457, "MEAN_ANOMALY": 290.8571, "EPHEMERIS_TYPE": 0, "CLASSIFICATION_TYPE": "U", "NORAD_CAT_ID": 32156, "ELEMENT_SET_NO": 999, "REV_AT_EPOCH": 64757, "BSTAR": 0.00055080587, "MEAN_MOTION_DOT": 1.483e-05, "MEAN_MOTION_DDOT": 0}, "tle": {"line1": "1 32156U 99025CTA 25342.31450582  .00001483  00000+0  55081-3 0  9993", "line2": "2 32156  99.3543 151.5435 0082298  70.1457 290.8571 14.31940306647571"}}, "geometry": {"type": "Point", "coordinates": [-44.660841288498695, -61.809372710354864]}}, {"type": "Feature", "properties": {"norad_id": 32160, "name": "FENGYUN 1C DEB", "group": "fengyun-1c-debris", "lat": -8.196736846636975, "lon": 142.26273157934486, "alt_km": 713.8565604929381, "timestamp": "2025-12-09T21:34:11.693820+00:00", "meta": {"OBJECT_NAME": "FENGYUN 1C DEB", "OBJECT_ID": "1999-025CTE", "EPOCH": "2025-12-08T17:12:37.312128", "MEAN_MOTION": 14.37552839, "ECCENTRICITY": 0.00822242, "INCLINATION": 98.881, "RA_OF_ASC_NODE": 139.7521, "ARG_OF_PERICENTER": 10.7927, "MEAN_ANOMALY": 349.4999, "EPHEMERIS_TYPE": 0, "CLASSIFICATION_TYPE": "U", "NORAD_CAT_ID": 32160, "ELEMENT_SET_NO": 999, "REV_AT_EPOCH": 95829, "BSTAR": 0.0007997555, "MEAN_MOTION_DOT": 2.445e-05, "MEAN_MOTION_DDOT": 0}, "tle": {"line1": "1 32160U 99025CTE 25342.71709852  .00002445  00000+0  79976-3 0  9997", "line2": "2 32160  98.8810 139.7521 0082224  10.7927 349.4999 14.37552839958297"}}, "geometry": {"type": "Point", "coordinates": [142.26273157934486, -8.196736846636975]}}, {"type": "Feature", "properties": {"norad_id": 32161, "name": "FENGYUN 1C DEB", "group": "fengyun-1c-debris", "lat": 25.453532160135456, "lon": -87.13422044744887, "alt_km": 953.9369545041554, "timestamp": "2025-12-09T21:34:11.693830+00:00", "meta": {"OBJECT_NAME": "FENGYUN 1C DEB", "OBJECT_ID": "1999-025CTF", "EPOCH": "2025-12-08T12:16:43.883328", "MEAN_MOTION": 14.01862269, "ECCENTRICITY": 0.01354176, "INCLINATION": 98.8305, "RA_OF_ASC_NODE": 87.2791, "ARG_OF_PERICENTER": 291.8401, "MEAN_ANOMALY": 66.8408, "EPHEMERIS_TYPE": 0, "CLASSIFICATION_TYPE": "U", "NORAD_CAT_ID": 32161, "ELEMENT_SET_NO": 999, "REV_AT_EPOCH": 63370, "BSTAR": 0.00067399448, "MEAN_MOTION_DOT": 1.067e-05, "MEAN_MOTION_DDOT": 0}, "tle": {"line1": "1 32161U 99025CTF 25342.51161902  .00001067  00000+0  67399-3 0  9999", "line2": "2 32161  98.8305  87.2791 0135417 291.8401  66.8408 14.01862269633708"}}, "geometry": {"type": "Point", "coordinates": [-87.13422044744887, 25.453532160135456]}}, {"type": "Feature", "properties": {"norad_id": 32162, "name": "FENGYUN 1C DEB", "group": "fengyun-1c-debris", "lat": -77.28299188116593, "lon": 76.28519684208536, "alt_km": 699.4362874385824, "timestamp": "2025-12-09T21:34:11.693841+00:00", "meta": {"OBJECT_NAME": "FENGYUN 1C DEB", "OBJECT_ID": "1999-025CTG", "EPOCH": "2025-12-09T02:14:01.110624", "MEAN_MOTION": 14.61952906, "ECCENTRICITY": 0.00479287, "INCLINATION": 99.4626, "RA_OF_ASC_NODE": 27.7136, "ARG_OF_PERICENTER": 181.6641, "MEAN_ANOMALY": 178.4404, "EPHEMERIS_TYPE": 0, "CLASSIFICATION_TYPE": "U", "NORAD_CAT_ID": 32162, "ELEMENT_SET_NO": 999, "REV_AT_EPOCH": 94865, "BSTAR": 0.0016371454, "MEAN_MOTION_DOT": 8.282e-05, "MEAN_MOTION_DDOT": 0}, "tle": {"line1": "1 32162U 99025CTG 25343.09306841  .00008282  00000+0  16371-2 0  9996", "line2": "2 32162  99.4626  27.7136 0047928 181.6641 178.4404 14.61952906948658"}}, "geometry": {"type": "Point", "coordinates": [76.28519684208536, -77.28299188116593]}}, {"type": "Feature", "properties": {"norad_id": 32163, "name": "FENGYUN 1C DEB", "group": "fengyun-1c-debris", "lat": -44.64088254132196, "lon": -1.041793211102516, "alt_km": 753.5795417227264, "timestamp": "2025-12-09T21:34:11.693851+00:00", "meta": {"OBJECT_NAME": "FENGYUN 1C DEB", "OBJECT_ID": "1999-025CTH", "EPOCH": "2025-12-09T06:48:10.922400", "MEAN_MOTION": 14.4309099, "ECCENTRICITY": 0.0051788, "INCLINATION": 99.546, "RA_OF_ASC_NODE": 348.7038, "ARG_OF_PERICENTER": 44.6286, "MEAN_ANOMALY": 315.9052, "EPHEMERIS_TYPE": 0, "CLASSIFICATION_TYPE": "U", "NORAD_CAT_ID": 32163, "ELEMENT_SET_NO": 999, "REV_AT_EPOCH": 60926, "BSTAR": 0.00145, "MEAN_MOTION_DOT": 4.893e-05, "MEAN_MOTION_DDOT": 0}, "tle": {"line1": "1 32163U 99025CTH 25343.28345975  .00004893  00000+0  14500-2 0  9995", "line2": "2 32163  99.5460 348.7038 0051788  44.6286 315.9052 14.43090990609269"}}, "geometry": {"type": "Point", "coordinates": [-1.041793211102516, -44.64088254132196]}}, {"type": "Feature", "properties": {"norad_id": 32167, "name": "FENGYUN 1C DEB", "group": "fengyun-1c-debris", "lat": 76.47580648757216, "lon": -163.22289138862456, "alt_km": 683.1925273821626, "timestamp": "2025-12-09T21:34:11.693862+00:00", "meta": {"OBJECT_NAME": "FENGYUN 1C DEB", "OBJECT_ID": "1999-025CTM", "EPOCH": "2025-12-07T05:20:43.611072", "MEAN_MOTION": 14.30962446, "ECCENTRICITY": 0.01652532, "INCLINATION": 98.4715, "RA_OF_ASC_NODE": 335.8779, "ARG_OF_PERICENTER": 73.8008, "MEAN_ANOMALY": 288.1289, "EPHEMERIS_TYPE": 0, "CLASSIFICATION_TYPE": "U", "NORAD_CAT_ID": 32167, "ELEMENT_SET_NO": 999, "REV_AT_EPOCH": 62596, "BSTAR": 0.00060408608, "MEAN_MOTION_DOT": 1.8e-05, "MEAN_MOTION_DDOT": 0}, "tle": {"line1": "1 32167U 99025CTM 25341.22272698  .00001800  00000+0  60409-3 0  9997", "line2": "2 32167  98.4715 335.8779 0165253  73.8008 288.1289 14.30962446625960"}}, "geometry": {"type": "Point", "coordinates": [-163.22289138862456, 76.47580648757216]}}, {"type": "Feature", "properties": {"norad_id": 32168, "name": "FENGYUN 1C DEB", "group": "fengyun-1c-debris", "lat": 78.04292069178257, "lon": -24.82900851237217, "alt_km": 1098.7422061942725, "timestamp": "2025-12-09T21:34:11.693872+00:00", "meta": {"OBJECT_NAME": "FENGYUN 1C DEB", "OBJECT_ID": "1999-025CTN", "EPOCH": "2025-12-08T22:36:42.815808", "MEAN_MOTION": 13.86073161, "ECCENTRICITY": 0.0243039, "INCLINATION": 101.6564, "RA_OF_ASC_NODE": 51.0765, "ARG_OF_PERICENTER": 247.2472, "MEAN_ANOMALY": 110.2828, "EPHEMERIS_TYPE": 0, "CLASSIFICATION_TYPE": "U", "NORAD_CAT_ID": 32168, "ELEMENT_SET_NO": 999, "REV_AT_EPOCH": 63427, "BSTAR": 0.0049864, "MEAN_MOTION_DOT": 7.184e-05, "MEAN_MOTION_DDOT": 0}, "tle": {"line1": "1 32168U 99025CTN 25342.94216222  .00007184  00000+0  49864-2 0  9991", "line2": "2 32168 101.6564  51.0765 0243039 247.2472 110.2828 13.86073161634278"}}, "geometry": {"type": "Point", "coordinates": [-24.82900851237217, 78.04292069178257]}}, {"type": "Feature", "properties": {"norad_id": 32169, "name": "FENGYUN 1C DEB", "group": "fengyun-1c-debris", "lat": -80.23453868835585, "lon": -68.62738671966702, "alt_km": 693.299562820217, "timestamp": "2025-12-09T21:34:11.693882+00:00", "meta": {"OBJECT_NAME": "FENGYUN 1C DEB", "OBJECT_ID": "1999-025CTP", "EPOCH": "2025-12-09T12:11:06.882720", "MEAN_MOTION": 14.67501713, "ECCENTRICITY": 0.00335327, "INCLINATION": 98.5603, "RA_OF_ASC_NODE": 172.031, "ARG_OF_PERICENTER": 130.3282, "MEAN_ANOMALY": 230.0859, "EPHEMERIS_TYPE": 0, "CLASSIFICATION_TYPE": "U", "NORAD_CAT_ID": 32169, "ELEMENT_SET_NO": 999, "REV_AT_EPOCH": 96571, "BSTAR": 0.0064634472, "MEAN_MOTION_DOT": 0.00037077, "MEAN_MOTION_DDOT": 0}, "tle": {"line1": "1 32169U 99025CTP 25343.50771855  .00037077  00000+0  64634-2 0  9999", "line2": "2 32169  98.5603 172.0310 0033532 130.3282 230.0859 14.67501713965713"}}, "geometry": {"type": "Point", "coordinates": [-68.62738671966702, -80.23453868835585]}}, {"type": "Feature", "properties": {"norad_id": 32171, "name": "FENGYUN 1C DEB", "group": "fengyun-1c-debris", "lat": -46.83884900381606, "lon": 46.10180874725971, "alt_km": 1393.6248502248282, "timestamp": "2025-12-09T21:34:11.693892+00:00", "meta": {"OBJECT_NAME": "FENGYUN 1C DEB", "OBJECT_ID": "1999-025CTR", "EPOCH": "2025-12-03T23:12:12.508416", "MEAN_MOTION": 13.4243602, "ECCENTRICITY": 0.04879299, "INCLINATION": 102.8037, "RA_OF_ASC_NODE": 232.6035, "ARG_OF_PERICENTER": 24.8358, "MEAN_ANOMALY": 350.9132, "EPHEMERIS_TYPE": 0, "CLASSIFICATION_TYPE": "U", "NORAD_CAT_ID": 32171, "ELEMENT_SET_NO": 999, "REV_AT_EPOCH": 60498, "BSTAR": 0.0080316463, "MEAN_MOTION_DOT": 9.177e-05, "MEAN_MOTION_DDOT": 0}, "tle": {"line1": "1 32171U 99025CTR 25337.96681144  .00009177  00000+0  80316-2 0  9991", "line2": "2 32171 102.8037 232.6035 0487929  24.8358 350.9132 13.42436020604982"}}, "geometry": {"type": "Point", "coordinates": [46.10180874725971, -46.83884900381606]}}]}